GSAT0101 (PRN E11)      
1 37846U 11060A   21280.43265678 -.00000073  00000-0  00000-0 0  9991
2 37846  56.8935  28.2284 0000719  48.0729 311.9409  1.70474981 61903
GSAT0102 (PRN E12)      
1 37847U 11060B   21280.35822081 -.00000073  00000-0  00000-0 0  9990
2 37847  56.8943  28.2299 0001801 301.9399  58.7744  1.70475242 61916
GSAT0103 (PRN E19)      
1 38857U 12055A   21278.71391865  .00000052  00000-0  00000-0 0  9991
2 38857  55.0668 148.7054 0001795 257.2381 102.8579  1.70473763 55765
GSAT0104 (PRN E20)      
1 38858U 12055B   21279.85762248  .00000054  00000-0  00000-0 0  9997
2 38858  55.0672 148.6753 0000749 111.3035 248.8221  1.70474073 55782
GSAT0201 (PRN E18)      
1 40128U 14050A   21280.41834485 -.00000072  00000-0  00000-0 0  9995
2 40128  50.4250 342.3645 1640298 115.2680 262.6167  1.85519039 46521
GSAT0202 (PRN E14)      
1 40129U 14050B   21280.14128910 -.00000070  00000-0  00000-0 0  9993
2 40129  50.4541 341.4285 1637401 116.0667 261.6960  1.85519706 48681
GSAT0203 (PRN E26)      
1 40544U 15017A   21280.21447143 -.00000073  00000-0  00000-0 0  9991
2 40544  56.6881  28.3024 0003760 224.4224 135.5547  1.70474936 39988
GSAT0204 (PRN E22)      
1 40545U 15017B   21280.46701330 -.00000073  00000-0  00000-0 0  9990
2 40545  56.6938  28.3068 0003975 209.3505 150.6350  1.70475614  3033
GSAT0205 (PRN E24)      
1 40889U 15045A   21280.23444293  .00000017  00000-0  00000-0 0  9996
2 40889  55.7987 268.9550 0004347 342.3592  17.6076  1.70474873 37797
GSAT0206 (PRN E30)      
1 40890U 15045B   21279.86733002  .00000019  00000-0  00000-0 0  9996
2 40890  55.7982 268.9614 0003424 317.8459  42.1114  1.70474878 37813
GSAT0209 (PRN E09)      
1 41174U 15079A   21279.45680824  .00000054  00000-0  00000-0 0  9996
2 41174  55.0829 148.3865 0003001 336.8852  23.2190  1.70472869 35540
GSAT0208 (PRN E08)      
1 41175U 15079B   21277.91670664  .00000048  00000-0  00000-0 0  9990
2 41175  55.0811 148.4278 0002380 344.7638  15.3423  1.70472872 35938
GSAT0211 (PRN E02)      
1 41549U 16030A   21279.20943864  .00000022  00000-0  00000-0 0  9994
2 41549  55.9430 268.8856 0005082 303.8224  56.1162  1.70474599 33431
GSAT0210 (PRN E01)      
1 41550U 16030B   21280.08874706  .00000018  00000-0  00000-0 0  9997
2 41550  55.9419 268.8629 0004966 280.6357  79.2908  1.70474596 33449
GSAT0207 (PRN E07)      
1 41859U 16069A   21279.74934765  .00000053  00000-0  00000-0 0  9993
2 41859  54.7424 148.6224 0002590 316.1658  43.9312  1.70472804 30174
GSAT0212 (PRN E03)      
1 41860U 16069B   21280.18936326  .00000053  00000-0  00000-0 0  9990
2 41860  54.7400 148.6083 0002414   2.5174 357.6011  1.70472722 30436
GSAT0213 (PRN E04)      
1 41861U 16069C   21277.62196390  .00000046  00000-0  00000-0 0  9997
2 41861  54.7417 148.6843 0001893 276.9016  83.1883  1.70473024 30255
GSAT0214 (PRN E05)      
1 41862U 16069D   21279.52883189  .00000053  00000-0  00000+0 0  9995
2 41862  54.7404 148.6263 0001065 293.8069  66.2994  1.70472890 30418
GSAT0215 (PRN E21)      
1 43055U 17079A   21280.01893383  .00000019  00000-0  00000-0 0  9999
2 43055  55.9179 268.6996 0004347 276.7402  83.1927  1.70473777 23768
GSAT0216 (PRN E25)      
1 43056U 17079B   21279.13818246  .00000022  00000-0  00000-0 0  9990
2 43056  55.9187 268.7236 0006124 277.2785  82.6389  1.70473953 23763
GSAT0217 (PRN E27)      
1 43057U 17079C   21279.94492649  .00000019  00000-0  00000-0 0  9991
2 43057  55.9171 268.7016 0005633 286.9944  72.9266  1.70473905 23764
GSAT0218 (PRN E31)      
1 43058U 17079D   21280.16494607  .00000018  00000-0  00000-0 0  9993
2 43058  55.9164 268.6927 0006551 274.6365  85.2704  1.70473864 23799
GSAT0221 (PRN E15)      
1 43564U 18060A   21278.89042944 -.00000070  00000-0  00000-0 0  9995
2 43564  57.0715  28.0890 0003585 247.5915 112.3756  1.70476024 19927
GSAT0222 (PRN E33)      
1 43565U 18060B   21279.11026962 -.00000071  00000-0  00000-0 0  9995
2 43565  57.0738  28.0831 0002990 253.9882 105.9843  1.70476043 19972
GSAT0219 (PRN E36)      
1 43566U 18060C   21278.15767906 -.00000069  00000-0  00000-0 0  9996
2 43566  57.0739  28.1108 0002632 251.0723 108.9034  1.70476068 19936
GSAT0220 (PRN E13)      
1 43567U 18060D   21280.13735054 -.00000072  00000-0  00000-0 0  9991
2 43567  57.0745  28.0579 0003029 246.9188 113.0567  1.70475663 19954
